[{"OBJECT_NAME":"SKYKRAFT-1A","OBJECT_ID":"2023-001AX","EPOCH":"2026-03-09T17:03:19.828224","MEAN_MOTION":15.28083228,"ECCENTRICITY":0.00112767,"INCLINATION":97.3349,"RA_OF_ASC_NODE":127.629,"ARG_OF_PERICENTER":121.5092,"MEAN_ANOMALY":238.7251,"EPHEMERIS_TYPE":0,"CLASSIFICATION_TYPE":"U","NORAD_CAT_ID":55054,"ELEMENT_SET_NO":999,"REV_AT_EPOCH":17652,"BSTAR":0.0003006872,"MEAN_MOTION_DOT":8.177e-5,"MEAN_MOTION_DDOT":0},{"OBJECT_NAME":"STARLINK-35370","OBJECT_ID":"2025-235AD","EPOCH":"2026-03-09T22:12:15.417216","MEAN_MOTION":15.30208642,"ECCENTRICITY":0.00010404,"INCLINATION":53.1579,"RA_OF_ASC_NODE":244.4481,"ARG_OF_PERICENTER":81.4609,"MEAN_ANOMALY":278.651,"EPHEMERIS_TYPE":0,"CLASSIFICATION_TYPE":"U","NORAD_CAT_ID":66085,"ELEMENT_SET_NO":999,"REV_AT_EPOCH":2292,"BSTAR":0.0012563086,"MEAN_MOTION_DOT":0.00037045,"MEAN_MOTION_DDOT":0}]
